KUIPER-00156            
1 65775U 25217P   26066.16970121  .00005330  00000+0  72736-3 0  9992
2 65775  51.9036  36.7673 0000848  90.3617 269.7443 14.79944810 24743
KUIPER-00158            
1 65776U 25217Q   26066.17215838  .00006534  00000+0  87323-3 0  9996
2 65776  51.8970  56.6048 0001167  47.9227 312.1835 14.80517440 24472
KUIPER-00163            
1 65777U 25217R   26066.50002314  .02008907  00000+0  14987+0 0  9997
2 65777  51.8974  56.7948 0000406 294.2208 114.7692 14.98880941  5630
KUIPER-00165            
1 65778U 25217S   26066.22646939  .00006388  00000+0  86609-3 0  9997
2 65778  51.9017  46.4887 0000814  88.2681 271.8375 14.79933583 24619
KUIPER-00166            
1 65779U 25217T   26066.27369035 -.00008635  00000+0 -11050-2 0  9998
2 65779  51.9047  33.8028 0000464 109.6323 250.4690 14.79937581 24796
KUIPER-00167            
1 65780U 25217U   26066.21570102  .00006168  00000+0  83692-3 0  9992
2 65780  51.8966  56.5021 0000660  76.2931 283.8105 14.79952477 24471
KUIPER-00168            
1 65781U 25217V   26066.23456228  .00007115  00000+0  96120-3 0  9990
2 65781  51.9019  38.9560 0001031  84.5974 275.5106 14.79939691 24726
KUIPER-00169            
1 65782U 25217W   26066.29751543  .00006852  00000+0  92916-3 0  9991
2 65782  51.9022  43.6882 0000802  96.2957 263.8097 14.79830552 24665
KUIPER-00170            
1 65783U 25217X   26066.35846261  .00006807  00000+0  92099-3 0  9993
2 65783  51.8999  48.3923 0000900  98.4911 261.6154 14.79932291 24606
KUIPER-00172            
1 65785U 25217Z   26066.50002314 -.00068741  00000+0 -83652-2 0  9996
2 65785  51.9005  28.5070 0001524 344.4104 337.8386 14.83345285  3393
KUIPER-00173            
1 65786U 25217AA  26066.50002314 -.00011743  00000+0 -15058-2 0  9992
2 65786  51.9025  42.0647 0000419  18.7976 179.4045 14.80160888  5325
KUIPER-00174            
1 65787U 25217AB  26066.13325861  .00004576  00000+0  62859-3 0  9993
2 65787  51.9047  39.4296 0001235  68.2365 291.8728 14.79949693 24706
KUIPER-00176            
1 65788U 25217AC  26066.25197876  .00006563  00000+0  88903-3 0  9996
2 65788  51.9003  53.8765 0000838  86.8674 273.2384 14.79934661 24517
KUIPER-00101            
1 65947U 25228A   26066.26425534  .00007843  00000+0  10565-2 0  9991
2 65947  51.8998  11.3027 0000759  94.6179 265.4871 14.79937588 22877
KUIPER-00113            
1 65948U 25228B   26066.23580692 -.00002636  00000+0 -31704-3 0  9992
2 65948  51.9040   6.4456 0000402  90.1851 269.9157 14.79913379 22936
KUIPER-00117            
1 65949U 25228C   26066.19942494  .00002417  00000+0  34603-3 0  9996
2 65949  51.9019   9.1107 0000871  89.8485 270.2578 14.79930630 22890
KUIPER-00121            
1 65950U 25228D   26066.23852703  .00000902  00000+0  14737-3 0  9999
2 65950  51.9036   3.9346 0001324 117.3568 242.7529 14.79916621 22974
