[{"OBJECT_NAME":"KUIPER-00156","OBJECT_ID":"2025-217P","EPOCH":"2026-03-07T04:04:22.184544","MEAN_MOTION":14.7994481,"ECCENTRICITY":8.489e-5,"INCLINATION":51.9036,"RA_OF_ASC_NODE":36.7673,"ARG_OF_PERICENTER":90.3617,"MEAN_ANOMALY":269.7443,"EPHEMERIS_TYPE":0,"CLASSIFICATION_TYPE":"U","NORAD_CAT_ID":65775,"ELEMENT_SET_NO":999,"REV_AT_EPOCH":2474,"BSTAR":0.00072736046,"MEAN_MOTION_DOT":5.33e-5,"MEAN_MOTION_DDOT":0},{"OBJECT_NAME":"KUIPER-00158","OBJECT_ID":"2025-217Q","EPOCH":"2026-03-07T04:07:54.484032","MEAN_MOTION":14.8051744,"ECCENTRICITY":0.0001167,"INCLINATION":51.897,"RA_OF_ASC_NODE":56.6048,"ARG_OF_PERICENTER":47.9227,"MEAN_ANOMALY":312.1835,"EPHEMERIS_TYPE":0,"CLASSIFICATION_TYPE":"U","NORAD_CAT_ID":65776,"ELEMENT_SET_NO":999,"REV_AT_EPOCH":2447,"BSTAR":0.00087323397,"MEAN_MOTION_DOT":6.534e-5,"MEAN_MOTION_DDOT":0},{"OBJECT_NAME":"KUIPER-00163","OBJECT_ID":"2025-217R","EPOCH":"2026-03-07T12:00:01.999296","MEAN_MOTION":14.98880941,"ECCENTRICITY":4.06e-5,"INCLINATION":51.8974,"RA_OF_ASC_NODE":56.7948,"ARG_OF_PERICENTER":294.2208,"MEAN_ANOMALY":114.7692,"EPHEMERIS_TYPE":0,"CLASSIFICATION_TYPE":"U","NORAD_CAT_ID":65777,"ELEMENT_SET_NO":999,"REV_AT_EPOCH":563,"BSTAR":0.14987,"MEAN_MOTION_DOT":0.02008907,"MEAN_MOTION_DDOT":0},{"OBJECT_NAME":"KUIPER-00165","OBJECT_ID":"2025-217S","EPOCH":"2026-03-07T05:26:06.955296","MEAN_MOTION":14.79933583,"ECCENTRICITY":8.14e-5,"INCLINATION":51.9017,"RA_OF_ASC_NODE":46.4887,"ARG_OF_PERICENTER":88.2681,"MEAN_ANOMALY":271.8375,"EPHEMERIS_TYPE":0,"CLASSIFICATION_TYPE":"U","NORAD_CAT_ID":65778,"ELEMENT_SET_NO":999,"REV_AT_EPOCH":2461,"BSTAR":0.00086609,"MEAN_MOTION_DOT":6.388e-5,"MEAN_MOTION_DDOT":0},{"OBJECT_NAME":"KUIPER-00166","OBJECT_ID":"2025-217T","EPOCH":"2026-03-07T06:34:06.846240","MEAN_MOTION":14.79937581,"ECCENTRICITY":4.64e-5,"INCLINATION":51.9047,"RA_OF_ASC_NODE":33.8028,"ARG_OF_PERICENTER":109.6323,"MEAN_ANOMALY":250.469,"EPHEMERIS_TYPE":0,"CLASSIFICATION_TYPE":"U","NORAD_CAT_ID":65779,"ELEMENT_SET_NO":999,"REV_AT_EPOCH":2479,"BSTAR":-0.001105,"MEAN_MOTION_DOT":-8.635e-5,"MEAN_MOTION_DDOT":0},{"OBJECT_NAME":"KUIPER-00167","OBJECT_ID":"2025-217U","EPOCH":"2026-03-07T05:10:36.568128","MEAN_MOTION":14.79952477,"ECCENTRICITY":6.6e-5,"INCLINATION":51.8966,"RA_OF_ASC_NODE":56.5021,"ARG_OF_PERICENTER":76.2931,"MEAN_ANOMALY":283.8105,"EPHEMERIS_TYPE":0,"CLASSIFICATION_TYPE":"U","NORAD_CAT_ID":65780,"ELEMENT_SET_NO":999,"REV_AT_EPOCH":2447,"BSTAR":0.00083692,"MEAN_MOTION_DOT":6.168e-5,"MEAN_MOTION_DDOT":0},{"OBJECT_NAME":"KUIPER-00168","OBJECT_ID":"2025-217V","EPOCH":"2026-03-07T05:37:46.180992","MEAN_MOTION":14.79939691,"ECCENTRICITY":0.0001031,"INCLINATION":51.9019,"RA_OF_ASC_NODE":38.956,"ARG_OF_PERICENTER":84.5974,"MEAN_ANOMALY":275.5106,"EPHEMERIS_TYPE":0,"CLASSIFICATION_TYPE":"U","NORAD_CAT_ID":65781,"ELEMENT_SET_NO":999,"REV_AT_EPOCH":2472,"BSTAR":0.0009612,"MEAN_MOTION_DOT":7.115e-5,"MEAN_MOTION_DDOT":0},{"OBJECT_NAME":"KUIPER-00169","OBJECT_ID":"2025-217W","EPOCH":"2026-03-07T07:08:25.333152","MEAN_MOTION":14.79830552,"ECCENTRICITY":8.02e-5,"INCLINATION":51.9022,"RA_OF_ASC_NODE":43.6882,"ARG_OF_PERICENTER":96.2957,"MEAN_ANOMALY":263.8097,"EPHEMERIS_TYPE":0,"CLASSIFICATION_TYPE":"U","NORAD_CAT_ID":65782,"ELEMENT_SET_NO":999,"REV_AT_EPOCH":2466,"BSTAR":0.00092916,"MEAN_MOTION_DOT":6.852e-5,"MEAN_MOTION_DDOT":0},{"OBJECT_NAME":"KUIPER-00170","OBJECT_ID":"2025-217X","EPOCH":"2026-03-07T08:36:11.169504","MEAN_MOTION":14.79932291,"ECCENTRICITY":9.0e-5,"INCLINATION":51.8999,"RA_OF_ASC_NODE":48.3923,"ARG_OF_PERICENTER":98.4911,"MEAN_ANOMALY":261.6154,"EPHEMERIS_TYPE":0,"CLASSIFICATION_TYPE":"U","NORAD_CAT_ID":65783,"ELEMENT_SET_NO":999,"REV_AT_EPOCH":2460,"BSTAR":0.00092099,"MEAN_MOTION_DOT":6.807e-5,"MEAN_MOTION_DDOT":0},{"OBJECT_NAME":"KUIPER-00172","OBJECT_ID":"2025-217Z","EPOCH":"2026-03-07T12:00:01.999296","MEAN_MOTION":14.83345285,"ECCENTRICITY":0.0001524,"INCLINATION":51.9005,"RA_OF_ASC_NODE":28.507,"ARG_OF_PERICENTER":344.4104,"MEAN_ANOMALY":337.8386,"EPHEMERIS_TYPE":0,"CLASSIFICATION_TYPE":"U","NORAD_CAT_ID":65785,"ELEMENT_SET_NO":999,"REV_AT_EPOCH":339,"BSTAR":-0.0083652,"MEAN_MOTION_DOT":-0.00068741,"MEAN_MOTION_DDOT":0},{"OBJECT_NAME":"KUIPER-00173","OBJECT_ID":"2025-217AA","EPOCH":"2026-03-07T12:00:01.999296","MEAN_MOTION":14.80160888,"ECCENTRICITY":4.19e-5,"INCLINATION":51.9025,"RA_OF_ASC_NODE":42.0647,"ARG_OF_PERICENTER":18.7976,"MEAN_ANOMALY":179.4045,"EPHEMERIS_TYPE":0,"CLASSIFICATION_TYPE":"U","NORAD_CAT_ID":65786,"ELEMENT_SET_NO":999,"REV_AT_EPOCH":532,"BSTAR":-0.0015058,"MEAN_MOTION_DOT":-0.00011743,"MEAN_MOTION_DDOT":0},{"OBJECT_NAME":"KUIPER-00174","OBJECT_ID":"2025-217AB","EPOCH":"2026-03-07T03:11:53.543904","MEAN_MOTION":14.79949693,"ECCENTRICITY":0.00012356,"INCLINATION":51.9047,"RA_OF_ASC_NODE":39.4296,"ARG_OF_PERICENTER":68.2365,"MEAN_ANOMALY":291.8728,"EPHEMERIS_TYPE":0,"CLASSIFICATION_TYPE":"U","NORAD_CAT_ID":65787,"ELEMENT_SET_NO":999,"REV_AT_EPOCH":2470,"BSTAR":0.00062859226,"MEAN_MOTION_DOT":4.576e-5,"MEAN_MOTION_DDOT":0},{"OBJECT_NAME":"KUIPER-00176","OBJECT_ID":"2025-217AC","EPOCH":"2026-03-07T06:02:50.964864","MEAN_MOTION":14.79934661,"ECCENTRICITY":8.38e-5,"INCLINATION":51.9003,"RA_OF_ASC_NODE":53.8765,"ARG_OF_PERICENTER":86.8674,"MEAN_ANOMALY":273.2384,"EPHEMERIS_TYPE":0,"CLASSIFICATION_TYPE":"U","NORAD_CAT_ID":65788,"ELEMENT_SET_NO":999,"REV_AT_EPOCH":2451,"BSTAR":0.00088903,"MEAN_MOTION_DOT":6.563e-5,"MEAN_MOTION_DDOT":0},{"OBJECT_NAME":"KUIPER-00101","OBJECT_ID":"2025-228A","EPOCH":"2026-03-07T06:20:31.661376","MEAN_MOTION":14.79937588,"ECCENTRICITY":7.595e-5,"INCLINATION":51.8998,"RA_OF_ASC_NODE":11.3027,"ARG_OF_PERICENTER":94.6179,"MEAN_ANOMALY":265.4871,"EPHEMERIS_TYPE":0,"CLASSIFICATION_TYPE":"U","NORAD_CAT_ID":65947,"ELEMENT_SET_NO":999,"REV_AT_EPOCH":2287,"BSTAR":0.0010564682,"MEAN_MOTION_DOT":7.843e-5,"MEAN_MOTION_DDOT":0},{"OBJECT_NAME":"KUIPER-00113","OBJECT_ID":"2025-228B","EPOCH":"2026-03-07T05:39:33.717888","MEAN_MOTION":14.79913379,"ECCENTRICITY":4.02e-5,"INCLINATION":51.904,"RA_OF_ASC_NODE":6.4456,"ARG_OF_PERICENTER":90.1851,"MEAN_ANOMALY":269.9157,"EPHEMERIS_TYPE":0,"CLASSIFICATION_TYPE":"U","NORAD_CAT_ID":65948,"ELEMENT_SET_NO":999,"REV_AT_EPOCH":2293,"BSTAR":-0.00031703545,"MEAN_MOTION_DOT":-2.636e-5,"MEAN_MOTION_DDOT":0},{"OBJECT_NAME":"KUIPER-00117","OBJECT_ID":"2025-228C","EPOCH":"2026-03-07T04:47:10.314816","MEAN_MOTION":14.7993063,"ECCENTRICITY":8.719e-5,"INCLINATION":51.9019,"RA_OF_ASC_NODE":9.1107,"ARG_OF_PERICENTER":89.8485,"MEAN_ANOMALY":270.2578,"EPHEMERIS_TYPE":0,"CLASSIFICATION_TYPE":"U","NORAD_CAT_ID":65949,"ELEMENT_SET_NO":999,"REV_AT_EPOCH":2289,"BSTAR":0.00034602896,"MEAN_MOTION_DOT":2.417e-5,"MEAN_MOTION_DDOT":0},{"OBJECT_NAME":"KUIPER-00121","OBJECT_ID":"2025-228D","EPOCH":"2026-03-07T05:43:28.735392","MEAN_MOTION":14.79916621,"ECCENTRICITY":0.00013244,"INCLINATION":51.9036,"RA_OF_ASC_NODE":3.9346,"ARG_OF_PERICENTER":117.3568,"MEAN_ANOMALY":242.7529,"EPHEMERIS_TYPE":0,"CLASSIFICATION_TYPE":"U","NORAD_CAT_ID":65950,"ELEMENT_SET_NO":999,"REV_AT_EPOCH":2297,"BSTAR":0.00014737001,"MEAN_MOTION_DOT":9.02e-6,"MEAN_MOTION_DDOT":0}]
